[{"OBJECT_NAME":"ONEWEB-0008","OBJECT_ID":"2019-010C","EPOCH":"2026-03-09T21:35:44.501568","MEAN_MOTION":13.16593372,"ECCENTRICITY":0.00016175,"INCLINATION":87.9001,"RA_OF_ASC_NODE":248.5251,"ARG_OF_PERICENTER":89.3339,"MEAN_ANOMALY":270.7977,"EPHEMERIS_TYPE":0,"CLASSIFICATION_TYPE":"U","NORAD_CAT_ID":44059,"ELEMENT_SET_NO":999,"REV_AT_EPOCH":33866,"BSTAR":-0.00023171046,"MEAN_MOTION_DOT":-7.6e-7,"MEAN_MOTION_DDOT":0},{"OBJECT_NAME":"DELTA 1 DEB","OBJECT_ID":"1975-052Z","EPOCH":"2026-03-09T20:17:10.662720","MEAN_MOTION":12.75761945,"ECCENTRICITY":0.03574502,"INCLINATION":99.684,"RA_OF_ASC_NODE":12.4613,"ARG_OF_PERICENTER":42.3,"MEAN_ANOMALY":21.9256,"EPHEMERIS_TYPE":0,"CLASSIFICATION_TYPE":"U","NORAD_CAT_ID":21288,"ELEMENT_SET_NO":999,"REV_AT_EPOCH":62236,"BSTAR":0.0014410311,"MEAN_MOTION_DOT":3.68e-6,"MEAN_MOTION_DDOT":0}]
